[
  {
    "OBJECT_NAME": "STARLINK-32840",
    "OBJECT_ID": "2025-063A",
    "EPOCH": "2025-06-28T15:45:48.110976",
    "MEAN_MOTION": 15.39626187,
    "ECCENTRICITY": 0.000137,
    "INCLINATION": 53.1582,
    "RA_OF_ASC_NODE": 158.9912,
    "ARG_OF_PERICENTER": 88.4679,
    "MEAN_ANOMALY": 271.6483,
    "EPHEMERIS_TYPE": 0,
    "CLASSIFICATION_TYPE": "U",
    "NORAD_CAT_ID": 63363,
    "ELEMENT_SET_NO": 999,
    "REV_AT_EPOCH": 1575,
    "BSTAR": 0.00039763,
    "MEAN_MOTION_DOT": 0.00015541,
    "MEAN_MOTION_DDOT": 0
  },
  {
    "OBJECT_NAME": "STARLINK-32543",
    "OBJECT_ID": "2025-063B",
    "EPOCH": "2025-06-28T10:11:23.805312",
    "MEAN_MOTION": 15.39630827,
    "ECCENTRICITY": 0.0001222,
    "INCLINATION": 53.1578,
    "RA_OF_ASC_NODE": 159.6726,
    "ARG_OF_PERICENTER": 85.7786,
    "MEAN_ANOMALY": 274.3358,
    "EPHEMERIS_TYPE": 0,
    "CLASSIFICATION_TYPE": "U",
    "NORAD_CAT_ID": 63364,
    "ELEMENT_SET_NO": 999,
    "REV_AT_EPOCH": 1573,
    "BSTAR": 0.00036162,
    "MEAN_MOTION_DOT": 0.00014097,
    "MEAN_MOTION_DDOT": 0
  },
  {
    "OBJECT_NAME": "STARLINK-33741",
    "OBJECT_ID": "2025-063C",
    "EPOCH": "2025-06-28T08:58:27.049152",
    "MEAN_MOTION": 15.3961768,
    "ECCENTRICITY": 8.69e-05,
    "INCLINATION": 53.1581,
    "RA_OF_ASC_NODE": 160.0569,
    "ARG_OF_PERICENTER": 115.5338,
    "MEAN_ANOMALY": 244.5757,
    "EPHEMERIS_TYPE": 0,
    "CLASSIFICATION_TYPE": "U",
    "NORAD_CAT_ID": 63365,
    "ELEMENT_SET_NO": 999,
    "REV_AT_EPOCH": 1573,
    "BSTAR": 0.00011657,
    "MEAN_MOTION_DOT": 4.266e-05,
    "MEAN_MOTION_DDOT": 0
  },
  {
    "OBJECT_NAME": "STARLINK-33742",
    "OBJECT_ID": "2025-063D",
    "EPOCH": "2025-06-28T10:11:52.208448",
    "MEAN_MOTION": 15.39634992,
    "ECCENTRICITY": 0.0001174,
    "INCLINATION": 53.1578,
    "RA_OF_ASC_NODE": 159.6619,
    "ARG_OF_PERICENTER": 89.1614,
    "MEAN_ANOMALY": 270.9525,
    "EPHEMERIS_TYPE": 0,
    "CLASSIFICATION_TYPE": "U",
    "NORAD_CAT_ID": 63366,
    "ELEMENT_SET_NO": 999,
    "REV_AT_EPOCH": 1569,
    "BSTAR": 0.00066303,
    "MEAN_MOTION_DOT": 0.00026225,
    "MEAN_MOTION_DDOT": 0
  },
  {
    "OBJECT_NAME": "STARLINK-33734",
    "OBJECT_ID": "2025-063E",
    "EPOCH": "2025-06-28T15:32:00.288384",
    "MEAN_MOTION": 15.30212614,
    "ECCENTRICITY": 0.000113,
    "INCLINATION": 53.1574,
    "RA_OF_ASC_NODE": 162.4447,
    "ARG_OF_PERICENTER": 99.5212,
    "MEAN_ANOMALY": 260.5917,
    "EPHEMERIS_TYPE": 0,
    "CLASSIFICATION_TYPE": "U",
    "NORAD_CAT_ID": 63367,
    "ELEMENT_SET_NO": 999,
    "REV_AT_EPOCH": 1563,
    "BSTAR": 0.00024241,
    "MEAN_MOTION_DOT": 6.83e-05,
    "MEAN_MOTION_DDOT": 0
  },
  {
    "OBJECT_NAME": "STARLINK-33578",
    "OBJECT_ID": "2025-063F",
    "EPOCH": "2025-06-28T06:25:25.160448",
    "MEAN_MOTION": 15.39626621,
    "ECCENTRICITY": 0.0001282,
    "INCLINATION": 53.1582,
    "RA_OF_ASC_NODE": 160.8149,
    "ARG_OF_PERICENTER": 105.6214,
    "MEAN_ANOMALY": 254.4933,
    "EPHEMERIS_TYPE": 0,
    "CLASSIFICATION_TYPE": "U",
    "NORAD_CAT_ID": 63368,
    "ELEMENT_SET_NO": 999,
    "REV_AT_EPOCH": 1566,
    "BSTAR": 0.00040968,
    "MEAN_MOTION_DOT": 0.00016025,
    "MEAN_MOTION_DDOT": 0
  },
  {
    "OBJECT_NAME": "STARLINK-33626",
    "OBJECT_ID": "2025-063G",
    "EPOCH": "2025-06-28T15:52:21.212832",
    "MEAN_MOTION": 15.39645943,
    "ECCENTRICITY": 0.0001003,
    "INCLINATION": 53.1591,
    "RA_OF_ASC_NODE": 158.2921,
    "ARG_OF_PERICENTER": 90.9358,
    "MEAN_ANOMALY": 269.1762,
    "EPHEMERIS_TYPE": 0,
    "CLASSIFICATION_TYPE": "U",
    "NORAD_CAT_ID": 63369,
    "ELEMENT_SET_NO": 999,
    "REV_AT_EPOCH": 1570,
    "BSTAR": 0.00053857,
    "MEAN_MOTION_DOT": 0.00021221,
    "MEAN_MOTION_DDOT": 0
  },
  {
    "OBJECT_NAME": "STARLINK-33657",
    "OBJECT_ID": "2025-063H",
    "EPOCH": "2025-06-28T07:24:29.511360",
    "MEAN_MOTION": 15.39614278,
    "ECCENTRICITY": 0.0001485,
    "INCLINATION": 53.1572,
    "RA_OF_ASC_NODE": 160.3597,
    "ARG_OF_PERICENTER": 101.1007,
    "MEAN_ANOMALY": 259.0164,
    "EPHEMERIS_TYPE": 0,
    "CLASSIFICATION_TYPE": "U",
    "NORAD_CAT_ID": 63370,
    "ELEMENT_SET_NO": 999,
    "REV_AT_EPOCH": 1567,
    "BSTAR": 0.00022426,
    "MEAN_MOTION_DOT": 8.579e-05,
    "MEAN_MOTION_DDOT": 0
  },
  {
    "OBJECT_NAME": "STARLINK-33648",
    "OBJECT_ID": "2025-063J",
    "EPOCH": "2025-06-28T06:11:05.323200",
    "MEAN_MOTION": 15.39621213,
    "ECCENTRICITY": 0.0001336,
    "INCLINATION": 53.1579,
    "RA_OF_ASC_NODE": 160.7535,
    "ARG_OF_PERICENTER": 89.1906,
    "MEAN_ANOMALY": 270.9252,
    "EPHEMERIS_TYPE": 0,
    "CLASSIFICATION_TYPE": "U",
    "NORAD_CAT_ID": 63371,
    "ELEMENT_SET_NO": 999,
    "REV_AT_EPOCH": 1571,
    "BSTAR": 0.00028203,
    "MEAN_MOTION_DOT": 0.00010898,
    "MEAN_MOTION_DDOT": 0
  },
  {
    "OBJECT_NAME": "STARLINK-33614",
    "OBJECT_ID": "2025-063K",
    "EPOCH": "2025-06-28T08:45:06.058080",
    "MEAN_MOTION": 15.39600933,
    "ECCENTRICITY": 0.0001357,
    "INCLINATION": 53.1572,
    "RA_OF_ASC_NODE": 159.9975,
    "ARG_OF_PERICENTER": 89.5843,
    "MEAN_ANOMALY": 270.5318,
    "EPHEMERIS_TYPE": 0,
    "CLASSIFICATION_TYPE": "U",
    "NORAD_CAT_ID": 63372,
    "ELEMENT_SET_NO": 999,
    "REV_AT_EPOCH": 1572,
    "BSTAR": 0.00036723,
    "MEAN_MOTION_DOT": 0.00014308,
    "MEAN_MOTION_DDOT": 0
  },
  {
    "OBJECT_NAME": "STARLINK-33617",
    "OBJECT_ID": "2025-063L",
    "EPOCH": "2025-06-28T15:32:17.234016",
    "MEAN_MOTION": 15.39626194,
    "ECCENTRICITY": 0.0001437,
    "INCLINATION": 53.1582,
    "RA_OF_ASC_NODE": 158.2022,
    "ARG_OF_PERICENTER": 82.1108,
    "MEAN_ANOMALY": 278.006,
    "EPHEMERIS_TYPE": 0,
    "CLASSIFICATION_TYPE": "U",
    "NORAD_CAT_ID": 63373,
    "ELEMENT_SET_NO": 999,
    "REV_AT_EPOCH": 1570,
    "BSTAR": 0.00042216,
    "MEAN_MOTION_DOT": 0.00016526,
    "MEAN_MOTION_DDOT": 0
  },
  {
    "OBJECT_NAME": "STARLINK-33618",
    "OBJECT_ID": "2025-063M",
    "EPOCH": "2025-06-28T07:51:35.233632",
    "MEAN_MOTION": 15.39617792,
    "ECCENTRICITY": 0.000122,
    "INCLINATION": 53.1582,
    "RA_OF_ASC_NODE": 159.7616,
    "ARG_OF_PERICENTER": 83.5906,
    "MEAN_ANOMALY": 276.5237,
    "EPHEMERIS_TYPE": 0,
    "CLASSIFICATION_TYPE": "U",
    "NORAD_CAT_ID": 63374,
    "ELEMENT_SET_NO": 999,
    "REV_AT_EPOCH": 1573,
    "BSTAR": 0.00044679,
    "MEAN_MOTION_DOT": 0.00017511,
    "MEAN_MOTION_DDOT": 0
  },
  {
    "OBJECT_NAME": "STARLINK-33621",
    "OBJECT_ID": "2025-063N",
    "EPOCH": "2025-06-28T16:12:24.562656",
    "MEAN_MOTION": 15.3962619,
    "ECCENTRICITY": 0.0001223,
    "INCLINATION": 53.1584,
    "RA_OF_ASC_NODE": 158.3782,
    "ARG_OF_PERICENTER": 90.7544,
    "MEAN_ANOMALY": 269.3601,
    "EPHEMERIS_TYPE": 0,
    "CLASSIFICATION_TYPE": "U",
    "NORAD_CAT_ID": 63375,
    "ELEMENT_SET_NO": 999,
    "REV_AT_EPOCH": 1570,
    "BSTAR": 0.00077297,
    "MEAN_MOTION_DOT": 0.00030649,
    "MEAN_MOTION_DDOT": 0
  },
  {
    "OBJECT_NAME": "STARLINK-33539",
    "OBJECT_ID": "2025-063P",
    "EPOCH": "2025-06-28T06:18:19.344096",
    "MEAN_MOTION": 15.30202998,
    "ECCENTRICITY": 0.0001508,
    "INCLINATION": 53.1572,
    "RA_OF_ASC_NODE": 164.3105,
    "ARG_OF_PERICENTER": 101.2472,
    "MEAN_ANOMALY": 258.8698,
    "EPHEMERIS_TYPE": 0,
    "CLASSIFICATION_TYPE": "U",
    "NORAD_CAT_ID": 63376,
    "ELEMENT_SET_NO": 999,
    "REV_AT_EPOCH": 1558,
    "BSTAR": 0.00031883,
    "MEAN_MOTION_DOT": 9.096e-05,
    "MEAN_MOTION_DDOT": 0
  }
]