STARLINK-32840          
1 63363U 25063A   25179.65680684  .00015541  00000+0  39763-3 0  9990
2 63363  53.1582 158.9912 0001370  88.4679 271.6483 15.39626187 15752
STARLINK-32543          
1 63364U 25063B   25179.42458108  .00014097  00000+0  36162-3 0  9995
2 63364  53.1578 159.6726 0001222  85.7786 274.3358 15.39630827 15739
STARLINK-33741          
1 63365U 25063C   25179.37392418  .00004266  00000+0  11657-3 0  9990
2 63365  53.1581 160.0569 0000869 115.5338 244.5757 15.39617680 15730
STARLINK-33742          
1 63366U 25063D   25179.42490982  .00026225  00000+0  66303-3 0  9999
2 63366  53.1578 159.6619 0001174  89.1614 270.9525 15.39634992 15696
STARLINK-33734          
1 63367U 25063E   25179.64722556  .00006830  00000+0  24241-3 0  9994
2 63367  53.1574 162.4447 0001130  99.5212 260.5917 15.30212614 15633
STARLINK-33578          
1 63368U 25063F   25179.26765232  .00016025  00000+0  40968-3 0  9992
2 63368  53.1582 160.8149 0001282 105.6214 254.4933 15.39626621 15662
STARLINK-33626          
1 63369U 25063G   25179.66135663  .00021221  00000+0  53857-3 0  9991
2 63369  53.1591 158.2921 0001003  90.9358 269.1762 15.39645943 15704
STARLINK-33657          
1 63370U 25063H   25179.30867490  .00008579  00000+0  22426-3 0  9993
2 63370  53.1572 160.3597 0001485 101.1007 259.0164 15.39614278 15675
STARLINK-33648          
1 63371U 25063J   25179.25770050  .00010898  00000+0  28203-3 0  9999
2 63371  53.1579 160.7535 0001336  89.1906 270.9252 15.39621213 15719
STARLINK-33614          
1 63372U 25063K   25179.36465345  .00014308  00000+0  36723-3 0  9996
2 63372  53.1572 159.9975 0001357  89.5843 270.5318 15.39600933 15724
STARLINK-33617          
1 63373U 25063L   25179.64742169  .00016526  00000+0  42216-3 0  9998
2 63373  53.1582 158.2022 0001437  82.1108 278.0060 15.39626194 15705
STARLINK-33618          
1 63374U 25063M   25179.32749113  .00017511  00000+0  44679-3 0  9990
2 63374  53.1582 159.7616 0001220  83.5906 276.5237 15.39617792 15738
STARLINK-33621          
1 63375U 25063N   25179.67528429  .00030649  00000+0  77297-3 0  9993
2 63375  53.1584 158.3782 0001223  90.7544 269.3601 15.39626190 15705
STARLINK-33539          
1 63376U 25063P   25179.26272389  .00009096  00000+0  31883-3 0  9993
2 63376  53.1572 164.3105 0001508 101.2472 258.8698 15.30202998 15585
